FLOCK 4G-26             
1 62633U 25009AA  26068.80489479  .00011283  00000+0  42469-3 0  9999
2 62633  97.4054 151.3913 0001988 299.1273  60.9767 15.27281631 63733
STARLINK-35305          
1 66561U 25268E   26067.99192392 -.00033055  00000+0 -11986-2 0  9996
2 66561  42.9995 350.9526 0001415 290.3728  69.6972 15.27536182 17856
